{"type": "FeatureCollection", "features": [ {"type": "Feature", "properties": {"norad_id": 34327, "name": "COSMOS 2251 DEB", "group": "cosmos-2251-debris", "lat": 55.79337256752282, "lon": -161.97561122811553, "alt_km": 586.9635738823072, "timestamp": "2025-12-12T03:50:52.812403+00:00", "meta": {"OBJECT_NAME": "COSMOS 2251 DEB", "OBJECT_ID": "1993-036NZ", "EPOCH": "2025-12-11T07:24:41.025024", "MEAN_MOTION": 14.89130866, "ECCENTRICITY": 0.0032718, "INCLINATION": 73.9936, "RA_OF_ASC_NODE": 174.7502, "ARG_OF_PERICENTER": 351.4093, "MEAN_ANOMALY": 184.6025, "EPHEMERIS_TYPE": 0, "CLASSIFICATION_TYPE": "U", "NORAD_CAT_ID": 34327, "ELEMENT_SET_NO": 999, "REV_AT_EPOCH": 89486, "BSTAR": 0.0023345642, "MEAN_MOTION_DOT": 0.00022293, "MEAN_MOTION_DDOT": 0}, "tle": {"line1": "1 34327U 93036NZ  25345.30880816  .00022293  00000+0  23346-2 0  9990", "line2": "2 34327  73.9936 174.7502 0032718 351.4093 184.6025 14.89130866894867"}}, "geometry": {"type": "Point", "coordinates": [-161.97561122811553, 55.79337256752282]}}, {"type": "Feature", "properties": {"norad_id": 34340, "name": "COSMOS 2251 DEB", "group": "cosmos-2251-debris", "lat": 72.92785555858116, "lon": 17.29325016328526, "alt_km": 771.9020776480329, "timestamp": "2025-12-12T03:50:52.812413+00:00", "meta": {"OBJECT_NAME": "COSMOS 2251 DEB", "OBJECT_ID": "1993-036PN", "EPOCH": "2025-12-11T09:02:03.583968", "MEAN_MOTION": 13.79562881, "ECCENTRICITY": 0.02824639, "INCLINATION": 74.0795, "RA_OF_ASC_NODE": 310.2639, "ARG_OF_PERICENTER": 58.3776, "MEAN_ANOMALY": 92.2626, "EPHEMERIS_TYPE": 0, "CLASSIFICATION_TYPE": "U", "NORAD_CAT_ID": 34340, "ELEMENT_SET_NO": 999, "REV_AT_EPOCH": 84249, "BSTAR": 0.002085567, "MEAN_MOTION_DOT": 2.879e-05, "MEAN_MOTION_DDOT": 0}, "tle": {"line1": "1 34340U 93036PN  25345.37643037  .00002879  00000+0  20856-2 0  9995", "line2": "2 34340  74.0795 310.2639 0282463  58.3776  92.2626 13.79562881842497"}}, "geometry": {"type": "Point", "coordinates": [17.29325016328526, 72.92785555858116]}}, {"type": "Feature", "properties": {"norad_id": 34343, "name": "COSMOS 2251 DEB", "group": "cosmos-2251-debris", "lat": -30.792116668587937, "lon": 80.84531079954857, "alt_km": 655.610340062427, "timestamp": "2025-12-12T03:50:52.812423+00:00", "meta": {"OBJECT_NAME": "COSMOS 2251 DEB", "OBJECT_ID": "1993-036PR", "EPOCH": "2025-12-11T15:12:04.152960", "MEAN_MOTION": 14.69410194, "ECCENTRICITY": 0.00232803, "INCLINATION": 74.0198, "RA_OF_ASC_NODE": 91.6993, "ARG_OF_PERICENTER": 6.9565, "MEAN_ANOMALY": 54.7637, "EPHEMERIS_TYPE": 0, "CLASSIFICATION_TYPE": "U", "NORAD_CAT_ID": 34343, "ELEMENT_SET_NO": 999, "REV_AT_EPOCH": 88714, "BSTAR": 0.0024206885, "MEAN_MOTION_DOT": 0.00014383, "MEAN_MOTION_DDOT": 0}, "tle": {"line1": "1 34343U 93036PR  25345.63338140  .00014383  00000+0  24207-2 0  9990", "line2": "2 34343  74.0198  91.6993 0023280   6.9565  54.7637 14.69410194887140"}}, "geometry": {"type": "Point", "coordinates": [80.84531079954857, -30.792116668587937]}}, {"type": "Feature", "properties": {"norad_id": 34344, "name": "COSMOS 2251 DEB", "group": "cosmos-2251-debris", "lat": 1.7208121880031328, "lon": -69.11224704845968, "alt_km": 890.5422145216098, "timestamp": "2025-12-12T03:50:52.812433+00:00", "meta": {"OBJECT_NAME": "COSMOS 2251 DEB", "OBJECT_ID": "1993-036PS", "EPOCH": "2025-12-11T10:18:56.472192", "MEAN_MOTION": 14.16394417, "ECCENTRICITY": 0.01557756, "INCLINATION": 73.9784, "RA_OF_ASC_NODE": 112.6858, "ARG_OF_PERICENTER": 297.1327, "MEAN_ANOMALY": 119.1053, "EPHEMERIS_TYPE": 0, "CLASSIFICATION_TYPE": "U", "NORAD_CAT_ID": 34344, "ELEMENT_SET_NO": 999, "REV_AT_EPOCH": 86078, "BSTAR": 0.0029392663, "MEAN_MOTION_DOT": 6.553e-05, "MEAN_MOTION_DDOT": 0}, "tle": {"line1": "1 34344U 93036PS  25345.42982028  .00006553  00000+0  29393-2 0  9999", "line2": "2 34344  73.9784 112.6858 0155775 297.1327 119.1053 14.16394417860789"}}, "geometry": {"type": "Point", "coordinates": [-69.11224704845968, 1.7208121880031328]}}, {"type": "Feature", "properties": {"norad_id": 34346, "name": "COSMOS 2251 DEB", "group": "cosmos-2251-debris", "lat": -32.342299479438886, "lon": -57.2173554850018, "alt_km": 1046.0789380172855, "timestamp": "2025-12-12T03:50:52.812443+00:00", "meta": {"OBJECT_NAME": "COSMOS 2251 DEB", "OBJECT_ID": "1993-036PU", "EPOCH": "2025-12-09T09:42:38.152800", "MEAN_MOTION": 13.9967692, "ECCENTRICITY": 0.02063467, "INCLINATION": 73.9954, "RA_OF_ASC_NODE": 318.0332, "ARG_OF_PERICENTER": 137.7544, "MEAN_ANOMALY": 348.7735, "EPHEMERIS_TYPE": 0, "CLASSIFICATION_TYPE": "U", "NORAD_CAT_ID": 34346, "ELEMENT_SET_NO": 999, "REV_AT_EPOCH": 85363, "BSTAR": 0.0013127855, "MEAN_MOTION_DOT": 2.284e-05, "MEAN_MOTION_DDOT": 0}, "tle": {"line1": "1 34346U 93036PU  25343.40460825  .00002284  00000+0  13128-2 0  9999", "line2": "2 34346  73.9954 318.0332 0206346 137.7544 348.7735 13.99676920853635"}}, "geometry": {"type": "Point", "coordinates": [-57.2173554850018, -32.342299479438886]}}, {"type": "Feature", "properties": {"norad_id": 34383, "name": "COSMOS 2251 DEB", "group": "cosmos-2251-debris", "lat": -59.15422957910256, "lon": -89.77165816000947, "alt_km": 546.5066727860667, "timestamp": "2025-12-12T03:50:52.812454+00:00", "meta": {"OBJECT_NAME": "COSMOS 2251 DEB", "OBJECT_ID": "1993-036PY", "EPOCH": "2025-12-11T08:06:41.715648", "MEAN_MOTION": 15.08812123, "ECCENTRICITY": 0.00024639, "INCLINATION": 74.0227, "RA_OF_ASC_NODE": 300.5932, "ARG_OF_PERICENTER": 41.6951, "MEAN_ANOMALY": 110.0291, "EPHEMERIS_TYPE": 0, "CLASSIFICATION_TYPE": "U", "NORAD_CAT_ID": 34383, "ELEMENT_SET_NO": 999, "REV_AT_EPOCH": 89092, "BSTAR": 0.0060678149, "MEAN_MOTION_DOT": 0.00096747, "MEAN_MOTION_DDOT": 0}, "tle": {"line1": "1 34383U 93036PY  25345.33798282  .00096747  00000+0  60678-2 0  9994", "line2": "2 34383  74.0227 300.5932 0002463  41.6951 110.0291 15.08812123890921"}}, "geometry": {"type": "Point", "coordinates": [-89.77165816000947, -59.15422957910256]}}, {"type": "Feature", "properties": {"norad_id": 34387, "name": "COSMOS 2251 DEB", "group": "cosmos-2251-debris", "lat": 8.773581633782635, "lon": -144.49484627720753, "alt_km": 733.1723600561245, "timestamp": "2025-12-12T03:50:52.812555+00:00", "meta": {"OBJECT_NAME": "COSMOS 2251 DEB", "OBJECT_ID": "1993-036QC", "EPOCH": "2025-12-10T02:38:42.383328", "MEAN_MOTION": 14.43811419, "ECCENTRICITY": 0.00387491, "INCLINATION": 74.0396, "RA_OF_ASC_NODE": 216.7829, "ARG_OF_PERICENTER": 314.1961, "MEAN_ANOMALY": 203.0035, "EPHEMERIS_TYPE": 0, "CLASSIFICATION_TYPE": "U", "NORAD_CAT_ID": 34387, "ELEMENT_SET_NO": 999, "REV_AT_EPOCH": 88143, "BSTAR": 0.00042782759, "MEAN_MOTION_DOT": 1.443e-05, "MEAN_MOTION_DDOT": 0}, "tle": {"line1": "1 34387U 93036QC  25344.11021277  .00001443  00000+0  42783-3 0  9993", "line2": "2 34387  74.0396 216.7829 0038749 314.1961 203.0035 14.43811419881430"}}, "geometry": {"type": "Point", "coordinates": [-144.49484627720753, 8.773581633782635]}}, {"type": "Feature", "properties": {"norad_id": 34388, "name": "COSMOS 2251 DEB", "group": "cosmos-2251-debris", "lat": -19.30626870474928, "lon": -141.56179356009892, "alt_km": 728.7027482437534, "timestamp": "2025-12-12T03:50:52.812569+00:00", "meta": {"OBJECT_NAME": "COSMOS 2251 DEB", "OBJECT_ID": "1993-036QD", "EPOCH": "2025-12-10T22:11:32.733024", "MEAN_MOTION": 14.49349762, "ECCENTRICITY": 0.0014113, "INCLINATION": 74.0389, "RA_OF_ASC_NODE": 226.5089, "ARG_OF_PERICENTER": 274.8216, "MEAN_ANOMALY": 100.4357, "EPHEMERIS_TYPE": 0, "CLASSIFICATION_TYPE": "U", "NORAD_CAT_ID": 34388, "ELEMENT_SET_NO": 999, "REV_AT_EPOCH": 88129, "BSTAR": 0.0010212, "MEAN_MOTION_DOT": 3.881e-05, "MEAN_MOTION_DDOT": 0}, "tle": {"line1": "1 34388U 93036QD  25344.92468441  .00003881  00000+0  10212-2 0  9990", "line2": "2 34388  74.0389 226.5089 0014113 274.8216 100.4357 14.49349762881298"}}, "geometry": {"type": "Point", "coordinates": [-141.56179356009892, -19.30626870474928]}}, {"type": "Feature", "properties": {"norad_id": 34389, "name": "COSMOS 2251 DEB", "group": "cosmos-2251-debris", "lat": 17.8679349054798, "lon": -103.80983742129192, "alt_km": 733.6907510592619, "timestamp": "2025-12-12T03:50:52.812581+00:00", "meta": {"OBJECT_NAME": "COSMOS 2251 DEB", "OBJECT_ID": "1993-036QE", "EPOCH": "2025-12-10T18:35:37.225824", "MEAN_MOTION": 14.41525543, "ECCENTRICITY": 0.00288178, "INCLINATION": 74.0193, "RA_OF_ASC_NODE": 253.4577, "ARG_OF_PERICENTER": 5.8457, "MEAN_ANOMALY": 25.1274, "EPHEMERIS_TYPE": 0, "CLASSIFICATION_TYPE": "U", "NORAD_CAT_ID": 34389, "ELEMENT_SET_NO": 999, "REV_AT_EPOCH": 87984, "BSTAR": 0.00064633379, "MEAN_MOTION_DOT": 2.084e-05, "MEAN_MOTION_DDOT": 0}, "tle": {"line1": "1 34389U 93036QE  25344.77473641  .00002084  00000+0  64633-3 0  9993", "line2": "2 34389  74.0193 253.4577 0028817   5.8457  25.1274 14.41525543879842"}}, "geometry": {"type": "Point", "coordinates": [-103.80983742129192, 17.8679349054798]}}, {"type": "Feature", "properties": {"norad_id": 34396, "name": "COSMOS 2251 DEB", "group": "cosmos-2251-debris", "lat": -51.518202899712946, "lon": -33.71819976130144, "alt_km": 652.042914620487, "timestamp": "2025-12-12T03:50:52.812592+00:00", "meta": {"OBJECT_NAME": "COSMOS 2251 DEB", "OBJECT_ID": "1993-036QM", "EPOCH": "2025-12-11T10:45:23.423328", "MEAN_MOTION": 14.74370157, "ECCENTRICITY": 0.00062889, "INCLINATION": 74.029, "RA_OF_ASC_NODE": 126.555, "ARG_OF_PERICENTER": 166.7674, "MEAN_ANOMALY": 249.2476, "EPHEMERIS_TYPE": 0, "CLASSIFICATION_TYPE": "U", "NORAD_CAT_ID": 34396, "ELEMENT_SET_NO": 999, "REV_AT_EPOCH": 88327, "BSTAR": 0.0044970445, "MEAN_MOTION_DOT": 0.00029929, "MEAN_MOTION_DDOT": 0}, "tle": {"line1": "1 34396U 93036QM  25345.44818777  .00029929  00000+0  44970-2 0  9997", "line2": "2 34396  74.0290 126.5550 0006288 166.7674 249.2476 14.74370157883275"}}, "geometry": {"type": "Point", "coordinates": [-33.71819976130144, -51.518202899712946]}}]}